IRIDIUM 26              
1 24903U 97043A   25364.52107851  .00000668  00000+0  21732-3 0  9997
2 24903  86.3945  28.0868 0002318  96.1749 263.9713 14.37343146484943
IRIDIUM 22              
1 24907U 97043E   25364.61434485  .00000559  00000+0  18538-3 0  9996
2 24907  86.3947  31.7563 0002345  91.3320 268.8146 14.36135324484966
DUMMY MASS 1            
1 24925U 97048A   25364.63636400  .00000662  00000+0  70479-4 0  9992
2 24925  86.3327  44.4224 0007420 151.2770 208.8865 14.87199537534327
DUMMY MASS 2            
1 24926U 97048B   25364.63133788  .00000645  00000+0  68988-4 0  9997
2 24926  86.3328  46.0691 0007709 163.7139 196.4335 14.86949901534097
IRIDIUM 29              
1 24944U 97051A   25364.70502504  .00000630  00000+0  20749-3 0  9991
2 24944  86.3937  61.3990 0002193  89.1900 270.9548 14.36678735481481
IRIDIUM 33              
1 24946U 97051C   25364.69644234  .00000513  00000+0  17301-3 0  9998
2 24946  86.3852  60.6828 0009056 144.3627 215.8176 14.35051078480923
IRIDIUM 28              
1 24948U 97051E   25364.69400441  .00000615  00000+0  19850-3 0  9994
2 24948  86.3942  58.8070 0002519 105.4008 254.7469 14.37578751482070
IRIDIUM 36              
1 24967U 97056C   25364.76592213  .00000704  00000+0  22736-3 0  9993
2 24967  86.3959  90.4055 0002395  97.5415 262.6055 14.37802278480463
